[Satellite]
VERSION=1.1
NAME=GLOBALSTAR M070
NICKNAME=GLOBALSTAR M070
TLE1=1 32264U 07048B   17185.96937469 -.00000105  00000-0 -87677-5 0  9999
TLE2=2 32264  51.9768 335.4406 0001372 103.2048  49.0960 12.62266611447872
